XRISM                   
1 57800U 23137A   26080.79089096  .00006629  00000+0  37472-3 0  9998
2 57800  31.0012 205.3819 0007978 160.8711 199.2228 15.11629018139620
ACS3                    
1 59588U 24077B   26080.80820682  .00030616  00000+0  24218-1 0  9998
2 59588  97.2006  19.1971 0069447  48.2458 312.4615 13.90163363 95887
SZ-21 MODULE            
1 66515U 25246C   26080.84864069  .00044117  00000+0  36505-3 0  9991
2 66515  41.4733 128.4589 0000505 233.4003 126.6793 15.69453239 19987
